{
  "type": "FeatureCollection",
  "features": [
    {
      "type": "Feature",
      "properties": {
        "norad_id": 66873,
        "name": "STARLINK-36128",
        "group": "last-30-days",
        "lat": -1.0940298834390418,
        "lon": 108.59546827013371,
        "alt_km": 333.4546767955053,
        "timestamp": "2025-12-14T18:52:54.244188+00:00",
        "meta_object_name": "STARLINK-36128",
        "meta_object_id": "2025-281AB",
        "meta_epoch": "2025-12-13T07:53:24.485568",
        "meta_mean_motion": 15.83609587,
        "meta_eccentricity": 0.00309005,
        "meta_inclination": 43.0006,
        "meta_ra_of_asc_node": 118.5515,
        "meta_arg_of_pericenter": 57.476,
        "meta_mean_anomaly": 302.9091,
        "meta_ephemeris_type": 0,
        "meta_classification_type": "U",
        "meta_norad_cat_id": 66873,
        "meta_element_set_no": 999,
        "meta_rev_at_epoch": 283,
        "meta_bstar": -0.039361402,
        "meta_mean_motion_dot": -0.07328802,
        "meta_mean_motion_ddot": 0,
        "tle_line1": "1 66873U 25281AB  25347.32875562 -.07328802  00000+0 -39361-1 0  9991",
        "tle_line2": "2 66873  43.0006 118.5515 0030900  57.4760 302.9091 15.83609587  2831"
      },
      "geometry": {
        "type": "Point",
        "coordinates": [
          108.59546827013371,
          -1.0940298834390418
        ]
      }
    },
    {
      "type": "Feature",
      "properties": {
        "norad_id": 66874,
        "name": "STARLINK-36129",
        "group": "last-30-days",
        "lat": 39.60513613980655,
        "lon": 172.14024855270134,
        "alt_km": 300.61276719739726,
        "timestamp": "2025-12-14T18:52:54.244200+00:00",
        "meta_object_name": "STARLINK-36129",
        "meta_object_id": "2025-281AC",
        "meta_epoch": "2025-12-13T07:54:19.825632",
        "meta_mean_motion": 15.90418355,
        "meta_eccentricity": 0.00037816,
        "meta_inclination": 43.0008,
        "meta_ra_of_asc_node": 118.5585,
        "meta_arg_of_pericenter": 317.1783,
        "meta_mean_anomaly": 42.8797,
        "meta_ephemeris_type": 0,
        "meta_classification_type": "U",
        "meta_norad_cat_id": 66874,
        "meta_element_set_no": 999,
        "meta_rev_at_epoch": 288,
        "meta_bstar": -0.0022089003,
        "meta_mean_motion_dot": -0.00654209,
        "meta_mean_motion_ddot": 0,
        "tle_line1": "1 66874U 25281AC  25347.32939613 -.00654209  00000+0 -22089-2 0  9996",
        "tle_line2": "2 66874  43.0008 118.5585 0003781 317.1783  42.8797 15.90418355  2886"
      },
      "geometry": {
        "type": "Point",
        "coordinates": [
          172.14024855270134,
          39.60513613980655
        ]
      }
    },
    {
      "type": "Feature",
      "properties": {
        "norad_id": 66875,
        "name": "STARLINK-36053",
        "group": "last-30-days",
        "lat": 41.25683910783585,
        "lon": 179.78910367368593,
        "alt_km": 300.87487801979205,
        "timestamp": "2025-12-14T18:52:54.244212+00:00",
        "meta_object_name": "STARLINK-36053",
        "meta_object_id": "2025-281AD",
        "meta_epoch": "2025-12-13T18:25:36.768288",
        "meta_mean_motion": 15.89215249,
        "meta_eccentricity": 0.00015193,
        "meta_inclination": 43.0004,
        "meta_ra_of_asc_node": 115.8195,
        "meta_arg_of_pericenter": 304.077,
        "meta_mean_anomaly": 55.9961,
        "meta_ephemeris_type": 0,
        "meta_classification_type": "U",
        "meta_norad_cat_id": 66875,
        "meta_element_set_no": 999,
        "meta_rev_at_epoch": 290,
        "meta_bstar": -0.0014393646,
        "meta_mean_motion_dot": -0.00411466,
        "meta_mean_motion_ddot": 0,
        "tle_line1": "1 66875U 25281AD  25347.76778667 -.00411466  00000+0 -14394-2 0  9991",
        "tle_line2": "2 66875  43.0004 115.8195 0001519 304.0770  55.9961 15.89215249  2904"
      },
      "geometry": {
        "type": "Point",
        "coordinates": [
          179.78910367368593,
          41.25683910783585
        ]
      }
    },
    {
      "type": "Feature",
      "properties": {
        "norad_id": 66876,
        "name": "STARLINK-35702",
        "group": "last-30-days",
        "lat": 41.65404268365243,
        "lon": -143.22491035321073,
        "alt_km": 279.87555595827416,
        "timestamp": "2025-12-14T18:52:54.244222+00:00",
        "meta_object_name": "STARLINK-35702",
        "meta_object_id": "2025-281AE",
        "meta_epoch": "2025-12-13T01:51:28.717344",
        "meta_mean_motion": 15.92649649,
        "meta_eccentricity": 0.00026407,
        "meta_inclination": 43.0009,
        "meta_ra_of_asc_node": 120.1106,
        "meta_arg_of_pericenter": 295.4716,
        "meta_mean_anomaly": 64.5886,
        "meta_ephemeris_type": 0,
        "meta_classification_type": "U",
        "meta_norad_cat_id": 66876,
        "meta_element_set_no": 999,
        "meta_rev_at_epoch": 284,
        "meta_bstar": 0.002543947,
        "meta_mean_motion_dot": 0.00900389,
        "meta_mean_motion_ddot": 0.00035047709,
        "tle_line1": "1 66876U 25281AE  25347.07741571  .00900389  35048-3  25439-2 0  9991",
        "tle_line2": "2 66876  43.0009 120.1106 0002640 295.4716  64.5886 15.92649649  2844"
      },
      "geometry": {
        "type": "Point",
        "coordinates": [
          -143.22491035321073,
          41.65404268365243
        ]
      }
    },
    {
      "type": "Feature",
      "properties": {
        "norad_id": 66877,
        "name": "ZQ-3 R/B",
        "group": "last-30-days",
        "lat": -46.47202682023848,
        "lon": 6.547330190045459,
        "alt_km": 523.8346469482422,
        "timestamp": "2025-12-14T18:52:54.244233+00:00",
        "meta_object_name": "ZQ-3 R/B",
        "meta_object_id": "2025-282A",
        "meta_epoch": "2025-12-13T11:59:41.296128",
        "meta_mean_motion": 14.60918996,
        "meta_eccentricity": 0.07731202,
        "meta_inclination": 56.9514,
        "meta_ra_of_asc_node": 54.7646,
        "meta_arg_of_pericenter": 221.2677,
        "meta_mean_anomaly": 132.7387,
        "meta_ephemeris_type": 0,
        "meta_classification_type": "U",
        "meta_norad_cat_id": 66877,
        "meta_element_set_no": 999,
        "meta_rev_at_epoch": 150,
        "meta_bstar": 0.0002349488,
        "meta_mean_motion_dot": 0.01185665,
        "meta_mean_motion_ddot": 7.503434e-06,
        "tle_line1": "1 66877U 25282A   25347.49978352  .01185665  75034-5  23495-3 0  9993",
        "tle_line2": "2 66877  56.9514  54.7646 0773120 221.2677 132.7387 14.60918996  1505"
      },
      "geometry": {
        "type": "Point",
        "coordinates": [
          6.547330190045459,
          -46.47202682023848
        ]
      }
    },
    {
      "type": "Feature",
      "properties": {
        "norad_id": 66878,
        "name": "STARLINK-35866",
        "group": "last-30-days",
        "lat": 37.09786136423543,
        "lon": 98.12336614539403,
        "alt_km": 298.6702882506479,
        "timestamp": "2025-12-14T18:52:54.244243+00:00",
        "meta_object_name": "STARLINK-35866",
        "meta_object_id": "2025-283A",
        "meta_epoch": "2025-12-13T20:00:03.000384",
        "meta_mean_motion": 15.91688542,
        "meta_eccentricity": 6.688e-05,
        "meta_inclination": 53.1555,
        "meta_ra_of_asc_node": 68.425,
        "meta_arg_of_pericenter": 58.3461,
        "meta_mean_anomaly": 288.5779,
        "meta_ephemeris_type": 0,
        "meta_classification_type": "U",
        "meta_norad_cat_id": 66878,
        "meta_element_set_no": 999,
        "meta_rev_at_epoch": 260,
        "meta_bstar": -0.0038330371,
        "meta_mean_motion_dot": -0.01279367,
        "meta_mean_motion_ddot": 0.00047722643,
        "tle_line1": "1 66878U 25283A   25347.83336806 -.01279367  47723-3 -38330-2 0  9995",
        "tle_line2": "2 66878  53.1555  68.4250 0000668  58.3461 288.5779 15.91688542  2606"
      },
      "geometry": {
        "type": "Point",
        "coordinates": [
          98.12336614539403,
          37.09786136423543
        ]
      }
    },
    {
      "type": "Feature",
      "properties": {
        "norad_id": 66879,
        "name": "STARLINK-35749",
        "group": "last-30-days",
        "lat": 40.289634770798095,
        "lon": 103.0383206736411,
        "alt_km": 297.7604749340908,
        "timestamp": "2025-12-14T18:52:54.244254+00:00",
        "meta_object_name": "STARLINK-35749",
        "meta_object_id": "2025-283B",
        "meta_epoch": "2025-12-13T20:00:03.000384",
        "meta_mean_motion": 15.9178959,
        "meta_eccentricity": 9.645e-05,
        "meta_inclination": 53.1553,
        "meta_ra_of_asc_node": 68.4149,
        "meta_arg_of_pericenter": 60.821,
        "meta_mean_anomaly": 290.8041,
        "meta_ephemeris_type": 0,
        "meta_classification_type": "U",
        "meta_norad_cat_id": 66879,
        "meta_element_set_no": 999,
        "meta_rev_at_epoch": 260,
        "meta_bstar": -0.0038717903,
        "meta_mean_motion_dot": -0.01298879,
        "meta_mean_motion_ddot": 0.00049104306,
        "tle_line1": "1 66879U 25283B   25347.83336806 -.01298879  49104-3 -38718-2 0  9990",
        "tle_line2": "2 66879  53.1553  68.4149 0000964  60.8210 290.8041 15.91789590  2604"
      },
      "geometry": {
        "type": "Point",
        "coordinates": [
          103.0383206736411,
          40.289634770798095
        ]
      }
    }
  ]
}